{
  "type": "FeatureCollection",
  "features": [
    {
      "type": "Feature",
      "properties": {
        "detail": "Haltestelle Dr.-Karl-Renner-Ring (D, 1, 2, 71, N25, N38, N60, N66)",
        "comment": null,
        "color": "green",
        "status": "public",
        "osmid": 4314602412,
        "imgURL": "File:Public_Scale_Vienna_Haltestelle_Dr-Karl-Renner-Ring_a_2017.jpg"
      },
      "geometry": {
        "type": "Point",
        "coordinates": [
          16.360078,
          48.206868
        ]
      }
    },
    {
      "type": "Feature",
      "properties": {
        "detail": "Haltestelle Dr.-Karl-Renner-Ring (46, 48A, 49, N46)",
        "comment": null,
        "color": "gold",
        "status": "public",
        "osmid": null,
        "imgURL": "File:Public_Scale_Vienna_Haltestelle_Dr-Karl-Renner-Ring_b_2017.jpg"
      },
      "geometry": {
        "type": "Point",
        "coordinates": [
          16.359607,
          48.206897
        ]
      }
    },
    {
      "type": "Feature",
      "properties": {
        "detail": "Resselpark",
        "comment": null,
        "color": "bronze",
        "status": "public",
        "osmid": 12309474903,
        "imgURL": "File:Public_Scale_Vienna_Resselpark_2017.jpg"
      },
      "geometry": {
        "type": "Point",
        "coordinates": [
          16.368744,
          48.199641
        ]
      }
    },
    {
      "type": "Feature",
      "properties": {
        "detail": "Haltestelle Otto-Wagner-Spital (48A FR Dr.-Karl-Renner-Ring)",
        "comment": null,
        "color": "bronze",
        "status": "public",
        "osmid": null,
        "imgURL": null
      },
      "geometry": {
        "type": "Point",
        "coordinates": [
          16.280509,
          48.206854
        ]
      }
    },
    {
      "type": "Feature",
      "properties": {
        "detail": "Haltestelle Währinger Straße, Volksoper U (40, 41, N41 FR Schottentor U)",
        "comment": null,
        "color": "silver",
        "status": "public",
        "osmid": null,
        "imgURL": null
      },
      "geometry": {
        "type": "Point",
        "coordinates": [
          16.349259,
          48.22483
        ]
      }
    },
    {
      "type": "Feature",
      "properties": {
        "detail": "Haltestelle Gersthof S (40, 41, N41 FR Schottentor U)",
        "comment": "Verschwunden",
        "color": "red",
        "status": "missing",
        "osmid": null,
        "imgURL": null
      },
      "geometry": {
        "type": "Point",
        "coordinates": [
          16.329073,
          48.23148
        ]
      }
    },
    {
      "type": "Feature",
      "properties": {
        "detail": "Reithofferplatz im Zuge der Märzstraße",
        "comment": null,
        "color": "gold",
        "status": "public",
        "osmid": null,
        "imgURL": "File:Public_Scale_Vienna_Reithofferpark_2019.jpg"
      },
      "geometry": {
        "type": "Point",
        "coordinates": [
          16.33044,
          48.198748
        ]
      }
    },
    {
      "type": "Feature",
      "properties": {
        "detail": "Haltestelle Franz-Josefs-Bahnhof S",
        "comment": null,
        "color": "silver",
        "status": "missing",
        "osmid": 3874461602,
        "imgURL": "File:Public_Scale_Vienna_Haltestelle_Franz-Josefs-Bahnhof_2019.jpg"
      },
      "geometry": {
        "type": "Point",
        "coordinates": [
          16.36103,
          48.225732
        ]
      }
    },
    {
      "type": "Feature",
      "properties": {
        "detail": "Augarten",
        "comment": null,
        "color": "green",
        "status": "public",
        "osmid": null,
        "imgURL": "File:Public_Scale_Vienna_Augarten_2019.jpg"
      },
      "geometry": {
        "type": "Point",
        "coordinates": [
          16.377155,
          48.222971
        ]
      }
    },
    {
      "type": "Feature",
      "properties": {
        "detail": "vor dem Freihaus",
        "comment": null,
        "color": "red",
        "status": "public",
        "osmid": 3892282289,
        "imgURL": "File:Public_Scale_Vienna_Freihaus_2017.jpg"
      },
      "geometry": {
        "type": "Point",
        "coordinates": [
          16.367633,
          48.198662
        ]
      }
    },
    {
      "type": "Feature",
      "properties": {
        "detail": "Währinger Straße, Altstoffsammelstelle vor Schubertpark",
        "comment": null,
        "color": "red",
        "status": "public",
        "osmid": null,
        "imgURL": null
      },
      "geometry": {
        "type": "Point",
        "coordinates": [
          16.339378,
          48.227221
        ]
      }
    },
    {
      "type": "Feature",
      "properties": {
        "detail": "vor der Uni Wien, Universitätsring",
        "comment": null,
        "color": "gold",
        "status": "public",
        "osmid": null,
        "imgURL": "File:Public_Scale_Vienna_Universitätsring_2017.jpg"
      },
      "geometry": {
        "type": "Point",
        "coordinates": [
          16.361378,
          48.213478
        ]
      }
    },
    {
      "type": "Feature",
      "properties": {
        "detail": "Haltestelle Schottentor U (D, 1, 71, N25, N38, N60, N66)",
        "comment": null,
        "color": "gold",
        "status": "public",
        "osmid": null,
        "imgURL": "File:Public_Scale_Vienna_Haltestelle_Schottentor_2017.jpg"
      },
      "geometry": {
        "type": "Point",
        "coordinates": [
          16.361781,
          48.213496
        ]
      }
    },
    {
      "type": "Feature",
      "properties": {
        "detail": "Ring, Innenseite, Höhe Stadiongasse",
        "comment": null,
        "color": "gold",
        "status": "public",
        "osmid": null,
        "imgURL": "File:Public_Scale_Vienna_Ring_Höhe_Stadiongasse_2017.jpg"
      },
      "geometry": {
        "type": "Point",
        "coordinates": [
          16.360503,
          48.208583
        ]
      }
    },
    {
      "type": "Feature",
      "properties": {
        "detail": "Haltestelle Westbahnhof S U (6, 18 FR Burggasse-Stadthalle U)",
        "comment": null,
        "color": "silver",
        "status": "public",
        "osmid": null,
        "imgURL": "File:Public_Scale_Vienna_Haltestelle_Westbahnhof_b_2019.jpg"
      },
      "geometry": {
        "type": "Point",
        "coordinates": [
          16.338757,
          48.197092
        ]
      }
    },
    {
      "type": "Feature",
      "properties": {
        "detail": "Haltestelle Karlsplatz U (Haltestelle von äußerem Schleifengleis)",
        "comment": null,
        "color": "red",
        "status": "public",
        "osmid": null,
        "imgURL": "File:Public_Scale_Vienna_Haltestelle_Karlsplatz_2017.jpg"
      },
      "geometry": {
        "type": "Point",
        "coordinates": [
          16.369797,
          48.200275
        ]
      }
    },
    {
      "type": "Feature",
      "properties": {
        "detail": "Haltestelle Margaretengürtel U (6, 18 FR Ustrab)",
        "comment": null,
        "color": "silver",
        "status": "public",
        "osmid": null,
        "imgURL": "File:Public_Scale_Vienna_Haltestelle_Margaretengürtel_a_2019.jpg"
      },
      "geometry": {
        "type": "Point",
        "coordinates": [
          16.34219,
          48.188343
        ]
      }
    },
    {
      "type": "Feature",
      "properties": {
        "detail": "Parkring, Haltestelle Stubentor U",
        "comment": null,
        "color": "gold",
        "status": "public",
        "osmid": null,
        "imgURL": "File:Public_Scale_Vienna_Haltestelle_Stubentor_b_2017.jpg"
      },
      "geometry": {
        "type": "Point",
        "coordinates": [
          16.379838,
          48.206732
        ]
      }
    },
    {
      "type": "Feature",
      "properties": {
        "detail": "Parkring, Außenseite, Haltestelle Stubentor U (2)",
        "comment": null,
        "color": "gold",
        "status": "public",
        "osmid": null,
        "imgURL": "File:Public_Scale_Vienna_Haltestelle_Stubentor_a_2017.jpg"
      },
      "geometry": {
        "type": "Point",
        "coordinates": [
          16.380371,
          48.206927
        ]
      }
    },
    {
      "type": "Feature",
      "properties": {
        "detail": "Taborstraße/Glockengasse",
        "comment": null,
        "color": "red",
        "status": "public",
        "osmid": null,
        "imgURL": "File:Public_Scale_Vienna_Taborstraße_Ecke_Glockengasse_2019.jpg"
      },
      "geometry": {
        "type": "Point",
        "coordinates": [
          16.380934,
          48.216544
        ]
      }
    },
    {
      "type": "Feature",
      "properties": {
        "detail": "Haltestelle Breitensee S",
        "comment": null,
        "color": "bronze",
        "status": "public",
        "osmid": null,
        "imgURL": null
      },
      "geometry": {
        "type": "Point",
        "coordinates": [
          16.306555,
          48.198759
        ]
      }
    },
    {
      "type": "Feature",
      "properties": {
        "detail": "Friedensbrücke",
        "comment": null,
        "color": "silver",
        "status": "public",
        "osmid": null,
        "imgURL": null
      },
      "geometry": {
        "type": "Point",
        "coordinates": [
          16.365867,
          48.227707
        ]
      }
    },
    {
      "type": "Feature",
      "properties": {
        "detail": "Haltestelle Gunoldstraße",
        "comment": null,
        "color": "red",
        "status": "public",
        "osmid": null,
        "imgURL": null
      },
      "geometry": {
        "type": "Point",
        "coordinates": [
          16.361354,
          48.244765
        ]
      }
    },
    {
      "type": "Feature",
      "properties": {
        "detail": "Haltestelle Taborstraße U (5B FR Bahnhof Heiligenstadt S U)",
        "comment": null,
        "color": "silver",
        "status": "public",
        "osmid": null,
        "imgURL": "File:Public_Scale_Vienna_Haltestelle_Taborstraße_2019.jpg"
      },
      "geometry": {
        "type": "Point",
        "coordinates": [
          16.380543,
          48.219331
        ]
      }
    },
    {
      "type": "Feature",
      "properties": {
        "detail": "Haltestelle Landstraße-Wien Mitte S U (O FR Praterstern S U)",
        "comment": null,
        "color": "red",
        "status": "public",
        "osmid": null,
        "imgURL": "File:Public_Scale_Vienna_Haltestelle_Landstraße_Wien_Mitte_a_2017.jpg"
      },
      "geometry": {
        "type": "Point",
        "coordinates": [
          16.385292,
          48.205503
        ]
      }
    },
    {
      "type": "Feature",
      "properties": {
        "detail": "Haltestelle Pilgramgasse U (12A, 14A, N60, L)",
        "comment": null,
        "color": "red",
        "status": "public",
        "osmid": 13371423943,
        "imgURL": null
      },
      "geometry": {
        "type": "Point",
        "coordinates": [
          16.353878,
          48.192756
        ]
      }
    },
    {
      "type": "Feature",
      "properties": {
        "detail": "Haltestelle Burgring (D, 1, 2, 71, N25, N38, N60, N66)",
        "comment": null,
        "color": "gold",
        "status": "public",
        "osmid": null,
        "imgURL": "File:Public_Scale_Vienna_Haltestelle_Burgring_a_2017.jpg"
      },
      "geometry": {
        "type": "Point",
        "coordinates": [
          16.364373,
          48.203765
        ]
      }
    },
    {
      "type": "Feature",
      "properties": {
        "detail": "Haltestelle Volkstheater (49, N49 FR Hütteldorf)",
        "comment": "Burggasse",
        "color": "silver",
        "status": "public",
        "osmid": null,
        "imgURL": "File:Public_Scale_Vienna_Haltestelle_Volkstheater_a_2017.jpg"
      },
      "geometry": {
        "type": "Point",
        "coordinates": [
          16.357205,
          48.204854
        ]
      }
    },
    {
      "type": "Feature",
      "properties": {
        "detail": "Haltestelle Am Tabor (2, N29, Fahrtrichtung stadtauswärts)",
        "comment": null,
        "color": "red",
        "status": "public",
        "osmid": null,
        "imgURL": null
      },
      "geometry": {
        "type": "Point",
        "coordinates": [
          16.383954,
          48.225524
        ]
      }
    },
    {
      "type": "Feature",
      "properties": {
        "detail": "Haltestelle Wien Oper (WLB)",
        "comment": null,
        "color": "silver",
        "status": "public",
        "osmid": null,
        "imgURL": "File:Public_Scale_Vienna_Haltestelle_Wien_Oper_2017.jpg"
      },
      "geometry": {
        "type": "Point",
        "coordinates": [
          16.370346,
          48.202108
        ]
      }
    },
    {
      "type": "Feature",
      "properties": {
        "detail": "Haltestelle Volkstheater (48A FR Baumgartner Höhe)",
        "comment": "Neustiftgasse",
        "color": "silver",
        "status": "public",
        "osmid": null,
        "imgURL": "File:Public_Scale_Vienna_Haltestelle_Volkstheater_b_2017.jpg"
      },
      "geometry": {
        "type": "Point",
        "coordinates": [
          16.356589,
          48.205527
        ]
      }
    },
    {
      "type": "Feature",
      "properties": {
        "detail": "Haltestelle Schedifkaplatz (WLB)",
        "comment": null,
        "color": "silver",
        "status": "public",
        "osmid": null,
        "imgURL": "File:Public_Scale_Vienna_Haltestelle_Schedifkaplatz_2019.jpg"
      },
      "geometry": {
        "type": "Point",
        "coordinates": [
          16.330588,
          48.173273
        ]
      }
    },
    {
      "type": "Feature",
      "properties": {
        "detail": "Haltestelle Urban-Loritz-Platz (49 FR Hütteldorf)",
        "comment": null,
        "color": "silver",
        "status": "public",
        "osmid": null,
        "imgURL": "File:Public_Scale_Vienna_Urban-Loritz-Platz_b_2019.jpg"
      },
      "geometry": {
        "type": "Point",
        "coordinates": [
          16.33759,
          48.201278
        ]
      }
    },
    {
      "type": "Feature",
      "properties": {
        "detail": "Auerspergstraße / Schmerlingplatz ",
        "comment": null,
        "color": "gold",
        "status": "public",
        "osmid": null,
        "imgURL": "File:Public_Scale_Vienna_Auerspergstraße_Schmerlingplatz_2017.jpg"
      },
      "geometry": {
        "type": "Point",
        "coordinates": [
          16.355767,
          48.207248
        ]
      }
    },
    {
      "type": "Feature",
      "properties": {
        "detail": "Haltestelle Brigittaplatz (33, N31 FR Norden)",
        "comment": null,
        "color": "red",
        "status": "public",
        "osmid": null,
        "imgURL": null
      },
      "geometry": {
        "type": "Point",
        "coordinates": [
          16.37054,
          48.232384
        ]
      }
    },
    {
      "type": "Feature",
      "properties": {
        "detail": "Schubertring, Haltestelle Schwarzenbergplatz (71)",
        "comment": null,
        "color": "gold",
        "status": "public",
        "osmid": null,
        "imgURL": "File:Public_Scale_Vienna_Haltestelle_Schwarzenbergplatz_2017.jpg"
      },
      "geometry": {
        "type": "Point",
        "coordinates": [
          16.37496,
          48.201695
        ]
      }
    },
    {
      "type": "Feature",
      "properties": {
        "detail": "Karmelitermarkt",
        "comment": "seitlich vom Flakturm",
        "color": "red",
        "status": "public",
        "osmid": null,
        "imgURL": "File:Public_Scale_Vienna_Karmelitermarkt_2019.jpg"
      },
      "geometry": {
        "type": "Point",
        "coordinates": [
          16.377507,
          48.217439
        ]
      }
    },
    {
      "type": "Feature",
      "properties": {
        "detail": "Haltestelle Nußdorfer Straße U (35A, 37A, N35, ASTAX N36)",
        "comment": null,
        "color": "gold",
        "status": "public",
        "osmid": null,
        "imgURL": null
      },
      "geometry": {
        "type": "Point",
        "coordinates": [
          16.353034,
          48.231496
        ]
      }
    },
    {
      "type": "Feature",
      "properties": {
        "detail": "Gerhardusgasse östliches Ende, vor Johann-Böhm-Wohnhausanlage",
        "comment": null,
        "color": "red",
        "status": "public",
        "osmid": null,
        "imgURL": null
      },
      "geometry": {
        "type": "Point",
        "coordinates": [
          16.368925,
          48.232613
        ]
      }
    },
    {
      "type": "Feature",
      "properties": {
        "detail": "Haltestelle Schönbrunn (U4)",
        "comment": null,
        "color": "gold",
        "status": "public",
        "osmid": null,
        "imgURL": null
      },
      "geometry": {
        "type": "Point",
        "coordinates": [
          16.319844,
          48.185783
        ]
      }
    },
    {
      "type": "Feature",
      "properties": {
        "detail": "Haltestelle Schwedenplatz U (1)",
        "comment": null,
        "color": "gold",
        "status": "public",
        "osmid": null,
        "imgURL": null
      },
      "geometry": {
        "type": "Point",
        "coordinates": [
          16.37781,
          48.211783
        ]
      }
    },
    {
      "type": "Feature",
      "properties": {
        "detail": "Haltestelle Auerspergstraße (46, N46)",
        "comment": null,
        "color": "silver",
        "status": "public",
        "osmid": null,
        "imgURL": "File:Public_Scale_Vienna_Haltestelle_Auerspergstraße_2017.jpg"
      },
      "geometry": {
        "type": "Point",
        "coordinates": [
          16.356264,
          48.207104
        ]
      }
    },
    {
      "type": "Feature",
      "properties": {
        "detail": "Haltestelle Schottenfeldgasse (46, N46 stadteinwärts)",
        "comment": "Ceija-Stojka-Platz",
        "color": "red",
        "status": "public",
        "osmid": null,
        "imgURL": "File:Photoworkshop_2018,_Vienna_(P1060358).jpg"
      },
      "geometry": {
        "type": "Point",
        "coordinates": [
          16.342564,
          48.207669
        ]
      }
    },
    {
      "type": "Feature",
      "properties": {
        "detail": "Richard-Wagner-Platz bei WC-Zugang",
        "comment": "Nach Baustelle verschwunden.",
        "color": "red",
        "status": "missing",
        "osmid": null,
        "imgURL": null
      },
      "geometry": {
        "type": "Point",
        "coordinates": [
          16.327801,
          48.210125
        ]
      }
    },
    {
      "type": "Feature",
      "properties": {
        "detail": "Haltestelle Thaliastraße/Feßtgasse (9 FR Westbahnhof S U)",
        "comment": null,
        "color": "red",
        "status": "public",
        "osmid": null,
        "imgURL": null
      },
      "geometry": {
        "type": "Point",
        "coordinates": [
          16.325221,
          48.210811
        ]
      }
    },
    {
      "type": "Feature",
      "properties": {
        "detail": "Haltestelle Vinzenzgasse (9, 42)",
        "comment": null,
        "color": "gold",
        "status": "public",
        "osmid": null,
        "imgURL": null
      },
      "geometry": {
        "type": "Point",
        "coordinates": [
          16.334126,
          48.225098
        ]
      }
    },
    {
      "type": "Feature",
      "properties": {
        "detail": "Haltestelle Floridsdorf S U (30, 31)",
        "comment": null,
        "color": "red",
        "status": "public",
        "osmid": null,
        "imgURL": null
      },
      "geometry": {
        "type": "Point",
        "coordinates": [
          16.399647,
          48.257356
        ]
      }
    },
    {
      "type": "Feature",
      "properties": {
        "detail": "Goldschlagstraße Ecke Neubaugürtel",
        "comment": null,
        "color": "red",
        "status": "public",
        "osmid": null,
        "imgURL": "File:Public_Scale_Vienna_Goldschlagstraße_Neubaugürtel_2019.jpg"
      },
      "geometry": {
        "type": "Point",
        "coordinates": [
          16.337672,
          48.199437
        ]
      }
    },
    {
      "type": "Feature",
      "properties": {
        "detail": "Haltestelle Margaretengürtel, Arbeitergasse (6, 18 FR Ustrab)",
        "comment": null,
        "color": "silver",
        "status": "public",
        "osmid": null,
        "imgURL": "File:Public_Scale_Vienna_Haltestelle_Arbeitergasse_Margaretengürtel_2019.jpg"
      },
      "geometry": {
        "type": "Point",
        "coordinates": [
          16.345515,
          48.184415
        ]
      }
    },
    {
      "type": "Feature",
      "properties": {
        "detail": "Reumannplatz",
        "comment": null,
        "color": "red",
        "status": "public",
        "osmid": null,
        "imgURL": "File:Public_Scale_Vienna_Reumannplatz_Höhe_Laaer-Berg-Straße_2019.jpg"
      },
      "geometry": {
        "type": "Point",
        "coordinates": [
          16.379231,
          48.173695
        ]
      }
    },
    {
      "type": "Feature",
      "properties": {
        "detail": "Podersdorf Strandplatz",
        "comment": null,
        "color": "blue",
        "status": null,
        "osmid": null,
        "imgURL": null
      },
      "geometry": {
        "type": "Point",
        "coordinates": [
          16.831044,
          47.859379
        ]
      }
    },
    {
      "type": "Feature",
      "properties": {
        "detail": "Attersee",
        "comment": null,
        "color": "gold",
        "status": null,
        "osmid": null,
        "imgURL": null
      },
      "geometry": {
        "type": "Point",
        "coordinates": [
          13.538112,
          47.91403
        ]
      }
    },
    {
      "type": "Feature",
      "properties": {
        "detail": "Technisches Museum",
        "comment": null,
        "color": "gold",
        "status": "private",
        "osmid": null,
        "imgURL": null
      },
      "geometry": {
        "type": "Point",
        "coordinates": [
          16.31862,
          48.19073
        ]
      }
    },
    {
      "type": "Feature",
      "properties": {
        "detail": "Haltestelle Hernals (43 FR Schottentor)",
        "comment": null,
        "color": "red",
        "status": "public",
        "osmid": null,
        "imgURL": null
      },
      "geometry": {
        "type": "Point",
        "coordinates": [
          16.31505,
          48.223525
        ]
      }
    },
    {
      "type": "Feature",
      "properties": {
        "detail": "Alser Straße Ecke Feldgasse vor kleiner Grünfläche",
        "comment": null,
        "color": "silver",
        "status": "public",
        "osmid": null,
        "imgURL": "File:Public_Scale_Vienna_Alser_Straße_Ecke_Feldgasse_2017.jpg"
      },
      "geometry": {
        "type": "Point",
        "coordinates": [
          16.345928,
          48.215275
        ]
      }
    },
    {
      "type": "Feature",
      "properties": {
        "detail": "Klosterneuburger Straße",
        "comment": null,
        "color": "silver",
        "status": "public",
        "osmid": null,
        "imgURL": null
      },
      "geometry": {
        "type": "Point",
        "coordinates": [
          16.367973,
          48.229069
        ]
      }
    },
    {
      "type": "Feature",
      "properties": {
        "detail": "Haltestelle Burggasse",
        "comment": null,
        "color": "gold",
        "status": "public",
        "osmid": null,
        "imgURL": "File:Public_Scale_Vienna_Haltestelle_Burggasse_2019.jpg"
      },
      "geometry": {
        "type": "Point",
        "coordinates": [
          16.33724,
          48.20409
        ]
      }
    },
    {
      "type": "Feature",
      "properties": {
        "detail": "Haltestelle Rennweg (O FR Raxstraße)",
        "comment": null,
        "color": "silver",
        "status": "public",
        "osmid": null,
        "imgURL": "File:Public_Scale_Vienna_Haltestelle_Rennweg_2019.jpg"
      },
      "geometry": {
        "type": "Point",
        "coordinates": [
          16.386488,
          48.195479
        ]
      }
    },
    {
      "type": "Feature",
      "properties": {
        "detail": "Haltestelle Landstraße - Wien Mitte (O FR Raxstraße)",
        "comment": null,
        "color": "red",
        "status": "public",
        "osmid": null,
        "imgURL": "File:Public_Scale_Vienna_Haltestelle_Landstraße-Wien_Mitte_b_2017.jpg"
      },
      "geometry": {
        "type": "Point",
        "coordinates": [
          16.385677,
          48.206058
        ]
      }
    },
    {
      "type": "Feature",
      "properties": {
        "detail": "Praterstern",
        "comment": null,
        "color": "silver",
        "status": "missing",
        "osmid": null,
        "imgURL": null
      },
      "geometry": {
        "type": "Point",
        "coordinates": [
          16.392851,
          48.217755
        ]
      }
    },
    {
      "type": "Feature",
      "properties": {
        "detail": "Burggasse",
        "comment": "ca. Höhe Hausnummer 76",
        "color": "red",
        "status": "public",
        "osmid": null,
        "imgURL": null
      },
      "geometry": {
        "type": "Point",
        "coordinates": [
          16.34683,
          48.204246
        ]
      }
    },
    {
      "type": "Feature",
      "properties": {
        "detail": "Haltestelle Alserstraße",
        "comment": null,
        "color": "gold",
        "status": "public",
        "osmid": null,
        "imgURL": null
      },
      "geometry": {
        "type": "Point",
        "coordinates": [
          16.341986,
          48.217253
        ]
      }
    },
    {
      "type": "Feature",
      "properties": {
        "detail": "Haltestelle Wattgasse",
        "comment": "Stadteinwärts",
        "color": "red",
        "status": "public",
        "osmid": null,
        "imgURL": null
      },
      "geometry": {
        "type": "Point",
        "coordinates": [
          16.321568,
          48.221411
        ]
      }
    },
    {
      "type": "Feature",
      "properties": {
        "detail": "Haltestelle Gumpendorfer Straße U (57A FR Burgring)",
        "comment": null,
        "color": "red",
        "status": "public",
        "osmid": null,
        "imgURL": "File:Public_Scale_Vienna_Haltestelle_Gumpendorfer_Straße_2019.jpg"
      },
      "geometry": {
        "type": "Point",
        "coordinates": [
          16.33745,
          48.1903
        ]
      }
    },
    {
      "type": "Feature",
      "properties": {
        "detail": "Haltestelle Hietzing U (60 FR Rodaun)",
        "comment": null,
        "color": "red",
        "status": "public",
        "osmid": null,
        "imgURL": "File:U-Bahn-Station_Hietzing_Eingang.JPG"
      },
      "geometry": {
        "type": "Point",
        "coordinates": [
          16.304033,
          48.18755
        ]
      }
    },
    {
      "type": "Feature",
      "properties": {
        "detail": "Haltestelle Friedrich-Engels-Platz (2, 5, 31, 33)",
        "comment": null,
        "color": "red",
        "status": "public",
        "osmid": null,
        "imgURL": "File:Public_Scale_Vienna_Friedrich_Engels_Platz_2019.jpg"
      },
      "geometry": {
        "type": "Point",
        "coordinates": [
          16.379483,
          48.244183
        ]
      }
    },
    {
      "type": "Feature",
      "properties": {
        "detail": "Haltestelle Schloss Belvedere (D Fahrtrichtung Beethovengang)",
        "comment": null,
        "color": "silver",
        "status": "public",
        "osmid": null,
        "imgURL": "File:Public_Scale_Vienna_Haltestelle_Schloss_Belvedere_2019.jpg"
      },
      "geometry": {
        "type": "Point",
        "coordinates": [
          16.3794,
          48.191667
        ]
      }
    },
    {
      "type": "Feature",
      "properties": {
        "detail": "Columbusplatz",
        "comment": "Neue Koordinaten nach Umbau",
        "color": "red",
        "status": "public",
        "osmid": null,
        "imgURL": "File:Public_Scale_Vienna_Columbusplatz_2019.jpg"
      },
      "geometry": {
        "type": "Point",
        "coordinates": [
          16.374947,
          48.181923
        ]
      }
    },
    {
      "type": "Feature",
      "properties": {
        "detail": "Kagran, vor Donauzentrum",
        "comment": null,
        "color": "red",
        "status": "public",
        "osmid": null,
        "imgURL": null
      },
      "geometry": {
        "type": "Point",
        "coordinates": [
          16.433867,
          48.243217
        ]
      }
    },
    {
      "type": "Feature",
      "properties": {
        "detail": "Max-Winter-Platz",
        "comment": null,
        "color": "red",
        "status": "missing",
        "osmid": null,
        "imgURL": null
      },
      "geometry": {
        "type": "Point",
        "coordinates": [
          16.400317,
          48.220933
        ]
      }
    },
    {
      "type": "Feature",
      "properties": {
        "detail": "Haltestelle Hoßplatz (25, 26, N20 Fahrtrichtung Floridsdorf)",
        "comment": "Seit Umbau verschollen",
        "color": "red",
        "status": "missing",
        "osmid": null,
        "imgURL": null
      },
      "geometry": {
        "type": "Point",
        "coordinates": [
          16.408,
          48.255017
        ]
      }
    },
    {
      "type": "Feature",
      "properties": {
        "detail": "Haltestelle Lassallestraße (11A, 11B Fahrtrichtung Friedrich-Engels-Platz)",
        "comment": null,
        "color": "red",
        "status": "public",
        "osmid": null,
        "imgURL": "File:Public_Scale_Vienna_Haltestelle_Lassallestraße_2019.jpg"
      },
      "geometry": {
        "type": "Point",
        "coordinates": [
          16.40245,
          48.223733
        ]
      }
    },
    {
      "type": "Feature",
      "properties": {
        "detail": "Haltestelle Quartier Belvedere (O, 18 Fahrtrichtung Hauptbahnhof)",
        "comment": null,
        "color": "red",
        "status": "public",
        "osmid": null,
        "imgURL": "File:Public_Scale_Vienna_Haltestelle_Quartier_Belvedere_Wiedner_Gürtel_2019.jpg"
      },
      "geometry": {
        "type": "Point",
        "coordinates": [
          16.3799,
          48.187795
        ]
      }
    },
    {
      "type": "Feature",
      "properties": {
        "detail": "Haltestelle Burgring",
        "comment": null,
        "color": "gold",
        "status": "public",
        "osmid": null,
        "imgURL": "File:Public_Scale_Vienna_Haltestelle_Burgring_b_2017.jpg"
      },
      "geometry": {
        "type": "Point",
        "coordinates": [
          16.363182,
          48.20415
        ]
      }
    },
    {
      "type": "Feature",
      "properties": {
        "detail": "Innsbruck Hafelekar",
        "comment": "Innerhalb der Bergstation Hafelekar",
        "color": "gold",
        "status": "private",
        "osmid": null,
        "imgURL": null
      },
      "geometry": {
        "type": "Point",
        "coordinates": [
          11.38361,
          47.311944
        ]
      }
    },
    {
      "type": "Feature",
      "properties": {
        "detail": "Salzburg neben Kollegienkirche",
        "comment": null,
        "color": "gold",
        "status": "public",
        "osmid": null,
        "imgURL": null
      },
      "geometry": {
        "type": "Point",
        "coordinates": [
          13.04346,
          47.799133
        ]
      }
    },
    {
      "type": "Feature",
      "properties": {
        "detail": "Lerchenfelder Gürtel, Ecke Herbststraße",
        "comment": null,
        "color": "red",
        "status": "public",
        "osmid": null,
        "imgURL": "File:Public_Scale_Vienna_Herbststraße_Ecke_Lerchenfelder_Gürtel.jpg"
      },
      "geometry": {
        "type": "Point",
        "coordinates": [
          16.336541,
          48.205438
        ]
      }
    },
    {
      "type": "Feature",
      "properties": {
        "detail": "Haltestelle Thaliastraße U, Koppstraße (48A FR Baumgartner Höhe)",
        "comment": null,
        "color": "red",
        "status": "public",
        "osmid": null,
        "imgURL": "File:Public_Scale_Vienna_Haltestelle_Thaliastraße_Koppstraße.jpg"
      },
      "geometry": {
        "type": "Point",
        "coordinates": [
          16.336968,
          48.206214
        ]
      }
    },
    {
      "type": "Feature",
      "properties": {
        "detail": "Kurpark Baden",
        "comment": null,
        "color": "gold",
        "status": "public",
        "osmid": null,
        "imgURL": "File:Baden_NÖ_Kurpark_Personenwaage_Berkel.jpg"
      },
      "geometry": {
        "type": "Point",
        "coordinates": [
          16.233866,
          48.010025
        ]
      }
    },
    {
      "type": "Feature",
      "properties": {
        "detail": "Kurpark Puchberg am Schneeberg",
        "comment": null,
        "color": "green",
        "status": "public",
        "osmid": null,
        "imgURL": null
      },
      "geometry": {
        "type": "Point",
        "coordinates": [
          15.9107,
          47.78982
        ]
      }
    },
    {
      "type": "Feature",
      "properties": {
        "detail": "Simmeringer Hauptstraße 61",
        "comment": null,
        "color": "red",
        "status": "public",
        "osmid": null,
        "imgURL": null
      },
      "geometry": {
        "type": "Point",
        "coordinates": [
          16.4121,
          48.17847
        ]
      }
    },
    {
      "type": "Feature",
      "properties": {
        "detail": "Haltestelle Knöllgasse (1, 6 FR stadtauswärts)",
        "comment": null,
        "color": "red",
        "status": "public",
        "osmid": null,
        "imgURL": "File:Public_Scale_Vienna_Haltestelle_Knöllgasse_2019.jpg"
      },
      "geometry": {
        "type": "Point",
        "coordinates": [
          16.35828,
          48.17777
        ]
      }
    },
    {
      "type": "Feature",
      "properties": {
        "detail": "Reumannplatz, Höhe Buchengasse",
        "comment": null,
        "color": "gold",
        "status": "public",
        "osmid": null,
        "imgURL": "File:Public_Scale_Vienna_Reumannplatz_Höhe_Buchengasse_2019.jpg"
      },
      "geometry": {
        "type": "Point",
        "coordinates": [
          16.378028,
          48.174618
        ]
      }
    },
    {
      "type": "Feature",
      "properties": {
        "detail": "Reumannplatz, Höhe Rotenhofgasse",
        "comment": null,
        "color": "red",
        "status": "public",
        "osmid": null,
        "imgURL": "File:Public_Scale_Vienna_Reumannplatz_Höhe_Rotenhofgasse_2019.jpg"
      },
      "geometry": {
        "type": "Point",
        "coordinates": [
          16.377657,
          48.174043
        ]
      }
    },
    {
      "type": "Feature",
      "properties": {
        "detail": "Hütteldorfer Straße ca. 90",
        "comment": "Ecke Kuefsteingasse",
        "color": "red",
        "status": "public",
        "osmid": null,
        "imgURL": "File:Public_Scale_Vienna_Hütteldorfer_Straße_Höhe_Kuefsteingasse_2019.jpg"
      },
      "geometry": {
        "type": "Point",
        "coordinates": [
          16.314964,
          48.19913
        ]
      }
    },
    {
      "type": "Feature",
      "properties": {
        "detail": "Viktor-Adler-Markt",
        "comment": null,
        "color": "red",
        "status": "public",
        "osmid": null,
        "imgURL": "File:Public_Scale_Vienna_Viktor-Adler-Markt_2019.jpg"
      },
      "geometry": {
        "type": "Point",
        "coordinates": [
          16.37698,
          48.176935
        ]
      }
    },
    {
      "type": "Feature",
      "properties": {
        "detail": "Keplerplatz, Höhe Columbusgasse",
        "comment": null,
        "color": "red",
        "status": "public",
        "osmid": null,
        "imgURL": "File:Public_Scale_Vienna_Keplerplatz_Höhe_Columbusgasse_2019.jpg"
      },
      "geometry": {
        "type": "Point",
        "coordinates": [
          16.375143,
          48.17831
        ]
      }
    },
    {
      "type": "Feature",
      "properties": {
        "detail": "Keplerplatz, Höhe Senefeldergasse",
        "comment": null,
        "color": "silver",
        "status": "public",
        "osmid": null,
        "imgURL": "File:Public_Scale_Vienna_Keplerplatz_Höhe_Senefeldergasse_2019.jpg"
      },
      "geometry": {
        "type": "Point",
        "coordinates": [
          16.376107,
          48.178173
        ]
      }
    },
    {
      "type": "Feature",
      "properties": {
        "detail": "Haltestelle Urban-Loritz-Platz (6, 18 Fahrtrichtung Ustrab)",
        "comment": null,
        "color": "silver",
        "status": "public",
        "osmid": null,
        "imgURL": "File:Public_Scale_Vienna_Urban-Loritz-Platz_a_2019.jpg"
      },
      "geometry": {
        "type": "Point",
        "coordinates": [
          16.337307,
          48.201135
        ]
      }
    },
    {
      "type": "Feature",
      "properties": {
        "detail": "Haltestelle Erlachplatz",
        "comment": null,
        "color": "silver",
        "status": "public",
        "osmid": 933691865,
        "imgURL": "File:Public_Scale_Vienna_Haltestelle_Erlachplatz_2019.jpg"
      },
      "geometry": {
        "type": "Point",
        "coordinates": [
          16.368725,
          48.178592
        ]
      }
    },
    {
      "type": "Feature",
      "properties": {
        "detail": "Hofferplatz",
        "comment": null,
        "color": "silver",
        "status": "public",
        "osmid": null,
        "imgURL": "File:Public_Scale_Vienna_Hofferplatz_2019.jpg"
      },
      "geometry": {
        "type": "Point",
        "coordinates": [
          16.333808,
          48.209188
        ]
      }
    },
    {
      "type": "Feature",
      "properties": {
        "detail": "Haltestelle Thaliastraße/Brunnengasse",
        "comment": null,
        "color": "silver",
        "status": "public",
        "osmid": null,
        "imgURL": "File:Public_Scale_Vienna_Haltestelle_Thaliastraße_Brunnengasse_2019.jpg"
      },
      "geometry": {
        "type": "Point",
        "coordinates": [
          16.335842,
          48.209035
        ]
      }
    },
    {
      "type": "Feature",
      "properties": {
        "detail": "Haltestelle Westbahnhof",
        "comment": null,
        "color": "silver",
        "status": "public",
        "osmid": null,
        "imgURL": "File:Public_Scale_Vienna_Haltestelle_Westbahnhof_a_2019.jpg"
      },
      "geometry": {
        "type": "Point",
        "coordinates": [
          16.33885,
          48.196663
        ]
      }
    },
    {
      "type": "Feature",
      "properties": {
        "detail": "Taborstraße 45",
        "comment": null,
        "color": "red",
        "status": "public",
        "osmid": null,
        "imgURL": "File:Public_Scale_Vienna_Taborstraße_45_2019.jpg"
      },
      "geometry": {
        "type": "Point",
        "coordinates": [
          16.381334,
          48.220201
        ]
      }
    },
    {
      "type": "Feature",
      "properties": {
        "detail": "Grünfläche zwischen Franzensbrückenstraße, Helenengasse und Hedwiggasse",
        "comment": null,
        "color": "red",
        "status": "public",
        "osmid": null,
        "imgURL": "File:Public_Scale_Vienna_Franzensbrückenstraße_Hedwiggasse_Helenengasse_2019.jpg"
      },
      "geometry": {
        "type": "Point",
        "coordinates": [
          16.391474,
          48.216536
        ]
      }
    },
    {
      "type": "Feature",
      "properties": {
        "detail": "Haltestelle Margaretengürtel",
        "comment": null,
        "color": "silver",
        "status": "public",
        "osmid": null,
        "imgURL": "File:Public_Scale_Vienna_Haltestelle_Margaretengürtel_b_2019.jpg"
      },
      "geometry": {
        "type": "Point",
        "coordinates": [
          16.341594,
          48.188351
        ]
      }
    },
    {
      "type": "Feature",
      "properties": {
        "detail": "Schönbrunner Straße 18",
        "comment": null,
        "color": "red",
        "status": "public",
        "osmid": null,
        "imgURL": "File:Public_Scale_Vienna_Schönbrunner_Straße_2019.jpg"
      },
      "geometry": {
        "type": "Point",
        "coordinates": [
          16.358863,
          48.193771
        ]
      }
    },
    {
      "type": "Feature",
      "properties": {
        "detail": "Haltestelle Eslarngasse (77A Fahrtrichtung Lusthaus)",
        "comment": null,
        "color": "red",
        "status": "public",
        "osmid": null,
        "imgURL": "File:Public_Scale_Vienna_Haltestelle_Eslarngasse_2019.jpg"
      },
      "geometry": {
        "type": "Point",
        "coordinates": [
          16.395743,
          48.196716
        ]
      }
    },
    {
      "type": "Feature",
      "properties": {
        "detail": "Traunkirchen Ortsplatz",
        "comment": null,
        "color": "red",
        "status": "public",
        "osmid": null,
        "imgURL": "File:Public_Scale_Traunkirchen_Ortsplatz_2019.jpg"
      },
      "geometry": {
        "type": "Point",
        "coordinates": [
          13.790237,
          47.844569
        ]
      }
    },
    {
      "type": "Feature",
      "properties": {
        "detail": "Haltestelle Bahnhof Meidling",
        "comment": null,
        "color": "red",
        "status": "public",
        "osmid": null,
        "imgURL": "File:Public_Scale_Vienna_Haltestelle_Bahnhof_Meidling_2019.jpg"
      },
      "geometry": {
        "type": "Point",
        "coordinates": [
          16.331093,
          48.1748167
        ]
      }
    },
    {
      "type": "Feature",
      "properties": {
        "detail": "Haltestelle Wienerbergbrücke",
        "comment": null,
        "color": "silver",
        "status": "public",
        "osmid": null,
        "imgURL": "File:Public_Scale_Vienna_Haltestelle_Wienerbergbrücke_Oswaldgasse_2019.jpg"
      },
      "geometry": {
        "type": "Point",
        "coordinates": [
          16.327673,
          48.172125
        ]
      }
    },
    {
      "type": "Feature",
      "properties": {
        "detail": "Haltestelle Quartier Belvedere (D Fahrtrichtung Nußdorf)",
        "comment": null,
        "color": "red",
        "status": "public",
        "osmid": null,
        "imgURL": "File:Public_Scale_Vienna_Haltestelle_Quartier_Belvedere_Arsenalstraße_2019.jpg"
      },
      "geometry": {
        "type": "Point",
        "coordinates": [
          16.381368,
          48.1878683
        ]
      }
    },
    {
      "type": "Feature",
      "properties": {
        "detail": "Felberstraße Ecke Schweglerstraße",
        "comment": null,
        "color": "red",
        "status": "public",
        "osmid": null,
        "imgURL": "File:Public_Scale_Vienna_Felberstraße_Schweglerstraße_2019.jpg"
      },
      "geometry": {
        "type": "Point",
        "coordinates": [
          16.329883,
          48.195849
        ]
      }
    },
    {
      "type": "Feature",
      "properties": {
        "detail": "Prater Hauptbahnhof",
        "comment": null,
        "color": "red",
        "status": "public",
        "osmid": 11020658388,
        "imgURL": null
      },
      "geometry": {
        "type": "Point",
        "coordinates": [
          16.3966264,
          48.2154379
        ]
      }
    },
    {
      "type": "Feature",
      "properties": {
        "detail": "Hütteldorfer Straße, Lützowgasse",
        "comment": null,
        "color": "red",
        "status": "public",
        "osmid": 13479029748,
        "imgURL": null
      },
      "geometry": {
        "type": "Point",
        "coordinates": [
          16.2947164,
          48.1971718
        ]
      }
    },
    {
      "type": "Feature",
      "properties": {
        "detail": "Franziskanerkirche",
        "comment": null,
        "color": "bronze",
        "status": "public",
        "osmid": 13427156391,
        "imgURL": null
      },
      "geometry": {
        "type": "Point",
        "coordinates": [
          15.623205,
          48.2059266
        ]
      }
    },
    {
      "type": "Feature",
      "properties": {
        "detail": "Stift St. Florian",
        "comment": null,
        "color": "gold",
        "status": "public",
        "osmid": 13479018129,
        "imgURL": null
      },
      "geometry": {
        "type": "Point",
        "coordinates": [
          14.3766273,
          48.2062106
        ]
      }
    },
    {
      "type": "Feature",
      "properties": {
        "detail": "Lermoos",
        "comment": null,
        "color": "silver",
        "status": "public",
        "osmid": 13479001443,
        "imgURL": null
      },
      "geometry": {
        "type": "Point",
        "coordinates": [
          10.8838086,
          47.4009853
        ]
      }
    },
    {
      "type": "Feature",
      "properties": {
        "detail": "Währinger Gürtel, Nußdorfer Straße, Betriebsbahnhof Gürtel",
        "comment": null,
        "color": "red",
        "status": "public",
        "osmid": 13547310270,
        "imgURL": null
      },
      "geometry": {
        "type": "Point",
        "coordinates": [
          16.3519075,
          48.2314496
        ]
      }
    },
    {
      "type": "Feature",
      "properties": {
        "detail": "Attersee Landungsplatz",
        "comment": null,
        "color": "gold",
        "status": "public",
        "osmid": null,
        "imgURL": null
      },
      "geometry": {
        "type": "Point",
        "coordinates": [
          13.538538,
          47.91451
        ]
      }
    },
    {
      "type": "Feature",
      "properties": {
        "detail": "Baden Römertherme",
        "comment": null,
        "color": "gold",
        "status": "public",
        "osmid": null,
        "imgURL": null
      },
      "geometry": {
        "type": "Point",
        "coordinates": [
          16.229647099971775,
          48.007735844300015
        ]
      }
    }
  ]
}
